ONEWEB-0624             
1 55165U 23004AB  24059.51993222 -.00000464  00000+0 -13240-2 0  9991
2 55165  87.9048 157.7423 0002039 113.4818 246.6525 13.12441389 57917
ONEWEB-0625             
1 55166U 23004AC  24059.60898757  .00000042  00000+0  73781-4 0  9997
2 55166  87.9262 172.8875 0002112 101.2036 258.9333 13.17650284 57019
ONEWEB-0626             
1 55167U 23004AD  24059.59948533  .00000051  00000+0  98112-4 0  9999
2 55167  87.9259 172.8908 0001223 116.0852 244.0406 13.17650499 57010
ONEWEB-0627             
1 55168U 23004AE  24059.58841211 -.00000012  00000+0 -64373-4 0  9995
2 55168  87.9259 172.8936 0002013 130.4791 229.6516 13.17649384 57014
ONEWEB-0628             
1 55169U 23004AF  24059.80265363  .00000432  00000+0  11642-2 0  9992
2 55169  87.9043 157.6775 0002360 118.3060 241.8307 13.12440820 57931
ONEWEB-0629             
1 55170U 23004AG  24059.58367104  .00000078  00000+0  16845-3 0  9992
2 55170  87.9255 172.8899 0002394 109.6525 250.4865 13.17650720 57011
ONEWEB-0631             
1 55171U 23004AH  24059.60340455  .00000006  00000+0 -18407-4 0  9995
2 55171  87.9234 142.5118 0001396 122.5883 237.5384 13.18686231 59021
ONEWEB-0709             
1 55172U 23004AJ  24059.63346338  .00000173  00000+0  45182-3 0  9998
2 55172  87.9022 188.0126 0000528 105.1818 254.9369 13.11419908 55831
